STARLINK-1628
1 16169C 20057BE  21326.13284960  .00003279  00000-0  22465-3 0  3264
2 16169  52.9967 158.1372 0001930  81.9530 300.3895 15.05569899    18
